[{"OBJECT_NAME":"EDISON-1","OBJECT_ID":"2025-009B","EPOCH":"2026-03-09T19:16:13.822464","MEAN_MOTION":15.29042904,"ECCENTRICITY":0.00043285,"INCLINATION":97.4042,"RA_OF_ASC_NODE":151.6286,"ARG_OF_PERICENTER":306.4185,"MEAN_ANOMALY":53.6655,"EPHEMERIS_TYPE":0,"CLASSIFICATION_TYPE":"U","NORAD_CAT_ID":62610,"ELEMENT_SET_NO":999,"REV_AT_EPOCH":6375,"BSTAR":0.00052814963,"MEAN_MOTION_DOT":0.00014835,"MEAN_MOTION_DDOT":0},{"OBJECT_NAME":"STARLINK-35437","OBJECT_ID":"2025-268G","EPOCH":"2026-03-09T04:25:19.225920","MEAN_MOTION":15.27591418,"ECCENTRICITY":0.0002268,"INCLINATION":43.0025,"RA_OF_ASC_NODE":349.8196,"ARG_OF_PERICENTER":262.1517,"MEAN_ANOMALY":97.9078,"EPHEMERIS_TYPE":0,"CLASSIFICATION_TYPE":"U","NORAD_CAT_ID":66563,"ELEMENT_SET_NO":999,"REV_AT_EPOCH":1788,"BSTAR":0.001175914,"MEAN_MOTION_DOT":0.0003225,"MEAN_MOTION_DDOT":0}]
